LYNK TOWER 4            
1 55034U 23001AB  26068.67743801  .00009160  00000+0  30014-3 0  9997
2 55034  97.3324 128.5940 0010321 112.3386 247.8950 15.31819885176588
STARLINK-31846          
1 60126U 24118P   26068.21182631 -.00000122  00000+0  80007-5 0  9992
2 60126  53.1611  28.9083 0001213  77.6146 282.4991 15.30190165 95620
